STARLINK-35547          
1 66119U 25237F   26068.24399068  .00015805  00000+0  54465-3 0  9990
2 66119  53.1620  41.6006 0001250  92.6754 267.4390 15.30197249 22545
KUIPER-00208            
1 67775U 26030M   26068.67231509  .00043852  00000+0  13883-2 0  9994
2 67775  51.8846 219.6993 0015525  57.3146 302.9333 15.32208734  5080
